{
  "type": "FeatureCollection",
  "features": [
    {
      "type": "Feature",
      "properties": {
        "norad_id": 34790,
        "name": "COSMOS 2251 DEB",
        "group": "cosmos-2251-debris",
        "lat": 3.9635991579606014,
        "lon": 36.48373682991666,
        "alt_km": 823.9721880266379,
        "timestamp": "2025-12-27T05:29:39.599570+00:00",
        "meta_object_name": "COSMOS 2251 DEB",
        "meta_object_id": "1993-036AAT",
        "meta_epoch": "2025-12-25T15:51:16.162272",
        "meta_mean_motion": 14.24671167,
        "meta_eccentricity": 0.0100473,
        "meta_inclination": 74.0524,
        "meta_ra_of_asc_node": 220.442,
        "meta_arg_of_pericenter": 279.3563,
        "meta_mean_anomaly": 137.0748,
        "meta_ephemeris_type": 0,
        "meta_classification_type": "U",
        "meta_norad_cat_id": 34790,
        "meta_element_set_no": 999,
        "meta_rev_at_epoch": 86757,
        "meta_bstar": 0.00054898,
        "meta_mean_motion_dot": 1.32e-05,
        "meta_mean_motion_ddot": 0,
        "tle_line1": "1 34790U 93036AAT 25359.66060373  .00001320  00000+0  54898-3 0  9991",
        "tle_line2": "2 34790  74.0524 220.4420 0100473 279.3563 137.0748 14.24671167867573"
      },
      "geometry": {
        "type": "Point",
        "coordinates": [
          36.48373682991666,
          3.9635991579606014
        ]
      }
    },
    {
      "type": "Feature",
      "properties": {
        "norad_id": 34792,
        "name": "COSMOS 2251 DEB",
        "group": "cosmos-2251-debris",
        "lat": -38.709253986098524,
        "lon": 128.92921986461,
        "alt_km": 710.7534294830048,
        "timestamp": "2025-12-27T05:29:39.599580+00:00",
        "meta_object_name": "COSMOS 2251 DEB",
        "meta_object_id": "1993-036AAV",
        "meta_epoch": "2025-12-26T20:28:39.709632",
        "meta_mean_motion": 14.56080726,
        "meta_eccentricity": 0.00123507,
        "meta_inclination": 74.0179,
        "meta_ra_of_asc_node": 142.9205,
        "meta_arg_of_pericenter": 238.0565,
        "meta_mean_anomaly": 272.7748,
        "meta_ephemeris_type": 0,
        "meta_classification_type": "U",
        "meta_norad_cat_id": 34792,
        "meta_element_set_no": 999,
        "meta_rev_at_epoch": 87855,
        "meta_bstar": 0.0014169193,
        "meta_mean_motion_dot": 6.229e-05,
        "meta_mean_motion_ddot": 0,
        "tle_line1": "1 34792U 93036AAV 25360.85323738  .00006229  00000+0  14169-2 0  9992",
        "tle_line2": "2 34792  74.0179 142.9205 0012350 238.0565 272.7748 14.56080726878557"
      },
      "geometry": {
        "type": "Point",
        "coordinates": [
          128.92921986461,
          -38.709253986098524
        ]
      }
    },
    {
      "type": "Feature",
      "properties": {
        "norad_id": 34793,
        "name": "COSMOS 2251 DEB",
        "group": "cosmos-2251-debris",
        "lat": -73.74493308351184,
        "lon": 143.86144843403665,
        "alt_km": 776.7681712887806,
        "timestamp": "2025-12-27T05:29:39.599590+00:00",
        "meta_object_name": "COSMOS 2251 DEB",
        "meta_object_id": "1993-036AAW",
        "meta_epoch": "2025-12-26T21:38:28.912128",
        "meta_mean_motion": 14.38666313,
        "meta_eccentricity": 0.00509334,
        "meta_inclination": 74.0014,
        "meta_ra_of_asc_node": 224.2033,
        "meta_arg_of_pericenter": 14.769,
        "meta_mean_anomaly": 4.6796,
        "meta_ephemeris_type": 0,
        "meta_classification_type": "U",
        "meta_norad_cat_id": 34793,
        "meta_element_set_no": 999,
        "meta_rev_at_epoch": 87534,
        "meta_bstar": 0.00024860862,
        "meta_mean_motion_dot": 7.47e-06,
        "meta_mean_motion_ddot": 0,
        "tle_line1": "1 34793U 93036AAW 25360.90172352  .00000747  00000+0  24861-3 0  9993",
        "tle_line2": "2 34793  74.0014 224.2033 0050933  14.7690   4.6796 14.38666313875347"
      },
      "geometry": {
        "type": "Point",
        "coordinates": [
          143.86144843403665,
          -73.74493308351184
        ]
      }
    },
    {
      "type": "Feature",
      "properties": {
        "norad_id": 34796,
        "name": "COSMOS 2251 DEB",
        "group": "cosmos-2251-debris",
        "lat": 8.561108156256202,
        "lon": 6.707496339429396,
        "alt_km": 763.0552419384176,
        "timestamp": "2025-12-27T05:29:39.599601+00:00",
        "meta_object_name": "COSMOS 2251 DEB",
        "meta_object_id": "1993-036AAZ",
        "meta_epoch": "2025-12-25T13:03:59.133024",
        "meta_mean_motion": 14.48745914,
        "meta_eccentricity": 0.0100284,
        "meta_inclination": 74.0282,
        "meta_ra_of_asc_node": 192.3362,
        "meta_arg_of_pericenter": 291.6358,
        "meta_mean_anomaly": 98.4563,
        "meta_ephemeris_type": 0,
        "meta_classification_type": "U",
        "meta_norad_cat_id": 34796,
        "meta_element_set_no": 999,
        "meta_rev_at_epoch": 88213,
        "meta_bstar": 0.00055203,
        "meta_mean_motion_dot": 2.189e-05,
        "meta_mean_motion_ddot": 0,
        "tle_line1": "1 34796U 93036AAZ 25359.54443441  .00002189  00000+0  55203-3 0  9990",
        "tle_line2": "2 34796  74.0282 192.3362 0100284 291.6358  98.4563 14.48745914882133"
      },
      "geometry": {
        "type": "Point",
        "coordinates": [
          6.707496339429396,
          8.561108156256202
        ]
      }
    },
    {
      "type": "Feature",
      "properties": {
        "norad_id": 34797,
        "name": "COSMOS 2251 DEB",
        "group": "cosmos-2251-debris",
        "lat": -6.683793348666548,
        "lon": 71.060744296444,
        "alt_km": 801.7062827478503,
        "timestamp": "2025-12-27T05:29:39.599611+00:00",
        "meta_object_name": "COSMOS 2251 DEB",
        "meta_object_id": "1993-036ABA",
        "meta_epoch": "2025-12-22T12:22:54.757056",
        "meta_mean_motion": 14.42950692,
        "meta_eccentricity": 0.00710542,
        "meta_inclination": 73.9783,
        "meta_ra_of_asc_node": 81.7691,
        "meta_arg_of_pericenter": 193.6898,
        "meta_mean_anomaly": 166.2334,
        "meta_ephemeris_type": 0,
        "meta_classification_type": "U",
        "meta_norad_cat_id": 34797,
        "meta_element_set_no": 999,
        "meta_rev_at_epoch": 87556,
        "meta_bstar": 0.0021692417,
        "meta_mean_motion_dot": 7.461e-05,
        "meta_mean_motion_ddot": 0,
        "tle_line1": "1 34797U 93036ABA 25356.51591154  .00007461  00000+0  21692-2 0  9992",
        "tle_line2": "2 34797  73.9783  81.7691 0071054 193.6898 166.2334 14.42950692875560"
      },
      "geometry": {
        "type": "Point",
        "coordinates": [
          71.060744296444,
          -6.683793348666548
        ]
      }
    },
    {
      "type": "Feature",
      "properties": {
        "norad_id": 34814,
        "name": "COSMOS 2251 DEB",
        "group": "cosmos-2251-debris",
        "lat": 22.644516618464298,
        "lon": -54.51093674392736,
        "alt_km": 805.21316626504,
        "timestamp": "2025-12-27T05:29:39.599622+00:00",
        "meta_object_name": "COSMOS 2251 DEB",
        "meta_object_id": "1993-036ABD",
        "meta_epoch": "2025-12-26T21:17:53.689344",
        "meta_mean_motion": 14.3695303,
        "meta_eccentricity": 0.00552403,
        "meta_inclination": 73.896,
        "meta_ra_of_asc_node": 299.2,
        "meta_arg_of_pericenter": 185.6833,
        "meta_mean_anomaly": 232.3417,
        "meta_ephemeris_type": 0,
        "meta_classification_type": "U",
        "meta_norad_cat_id": 34814,
        "meta_element_set_no": 999,
        "meta_rev_at_epoch": 87536,
        "meta_bstar": 0.0008192314,
        "meta_mean_motion_dot": 2.443e-05,
        "meta_mean_motion_ddot": 0,
        "tle_line1": "1 34814U 93036ABD 25360.88742696  .00002443  00000+0  81923-3 0  9995",
        "tle_line2": "2 34814  73.8960 299.2000 0055240 185.6833 232.3417 14.36953030875362"
      },
      "geometry": {
        "type": "Point",
        "coordinates": [
          -54.51093674392736,
          22.644516618464298
        ]
      }
    },
    {
      "type": "Feature",
      "properties": {
        "norad_id": 34815,
        "name": "COSMOS 2251 DEB",
        "group": "cosmos-2251-debris",
        "lat": 0.4908776191007474,
        "lon": 33.207413038746786,
        "alt_km": 643.6799806545796,
        "timestamp": "2025-12-27T05:29:39.599632+00:00",
        "meta_object_name": "COSMOS 2251 DEB",
        "meta_object_id": "1993-036ABE",
        "meta_epoch": "2025-12-26T14:03:50.056128",
        "meta_mean_motion": 14.78464086,
        "meta_eccentricity": 0.0058668,
        "meta_inclination": 74.044,
        "meta_ra_of_asc_node": 214.6101,
        "meta_arg_of_pericenter": 280.8281,
        "meta_mean_anomaly": 78.6295,
        "meta_ephemeris_type": 0,
        "meta_classification_type": "U",
        "meta_norad_cat_id": 34815,
        "meta_element_set_no": 999,
        "meta_rev_at_epoch": 88832,
        "meta_bstar": 0.00075168,
        "meta_mean_motion_dot": 5.613e-05,
        "meta_mean_motion_ddot": 0,
        "tle_line1": "1 34815U 93036ABE 25360.58599602  .00005613  00000+0  75168-3 0  9996",
        "tle_line2": "2 34815  74.0440 214.6101 0058668 280.8281  78.6295 14.78464086888323"
      },
      "geometry": {
        "type": "Point",
        "coordinates": [
          33.207413038746786,
          0.4908776191007474
        ]
      }
    }
  ]
}